[Satellite]
VERSION=1.1
NAME=CIEL-2
NICKNAME=CIEL-2
TLE1=1 33453U 08063A   15055.51056486  .00000032  00000-0  10000-3 0  9995
TLE2=2 33453   0.0414 288.5531 0003075  35.5217 244.8951  1.00271064 22748
